{
  "links" : {
    "next" : "https://api.nasa.gov/neo/rest/v1/feed?start_date=2011-12-09&end_date=2011-12-09&detailed=true&api_key=t0TVs3DtDT2H8Oy2Zy8m2eVrNsAVKAexjcZXUckd",
    "prev" : "https://api.nasa.gov/neo/rest/v1/feed?start_date=2011-12-07&end_date=2011-12-07&detailed=true&api_key=t0TVs3DtDT2H8Oy2Zy8m2eVrNsAVKAexjcZXUckd",
    "self" : "https://api.nasa.gov/neo/rest/v1/feed?start_date=2011-12-08&end_date=2011-12-08&detailed=true&api_key=t0TVs3DtDT2H8Oy2Zy8m2eVrNsAVKAexjcZXUckd"
  },
  "element_count" : 8,
  "near_earth_objects" : {
    "2011-12-08" : [ {
      "links" : {
        "self" : "https://api.nasa.gov/neo/rest/v1/neo/3672960?api_key=t0TVs3DtDT2H8Oy2Zy8m2eVrNsAVKAexjcZXUckd"
      },
      "neo_reference_id" : "3672960",
      "name" : "(2014 KP84)",
      "nasa_jpl_url" : "http://ssd.jpl.nasa.gov/sbdb.cgi?sstr=3672960",
      "absolute_magnitude_h" : 20.4,
      "estimated_diameter" : {
        "kilometers" : {
          "estimated_diameter_min" : 0.2210828104,
          "estimated_diameter_max" : 0.4943561926
        },
        "meters" : {
          "estimated_diameter_min" : 221.0828103591,
          "estimated_diameter_max" : 494.3561926196
        },
        "miles" : {
          "estimated_diameter_min" : 0.137374447,
          "estimated_diameter_max" : 0.3071786018
        },
        "feet" : {
          "estimated_diameter_min" : 725.3373275385,
          "estimated_diameter_max" : 1621.9035709942
        }
      },
      "is_potentially_hazardous_asteroid" : true,
      "close_approach_data" : [ {
        "close_approach_date" : "2011-12-08",
        "epoch_date_close_approach" : 1323331200000,
        "relative_velocity" : {
          "kilometers_per_second" : "13.5763510741",
          "kilometers_per_hour" : "48874.8638668378",
          "miles_per_hour" : "30368.9397177026"
        },
        "miss_distance" : {
          "astronomical" : "0.2416756073",
          "lunar" : "94.0118103027",
          "kilometers" : "36154156",
          "miles" : "22465150"
        },
        "orbiting_body" : "Earth"
      } ],
      "orbital_data" : {
        "orbit_id" : "8",
        "orbit_determination_date" : "2017-04-06 08:40:15",
        "orbit_uncertainty" : "6",
        "minimum_orbit_intersection" : ".0111448",
        "jupiter_tisserand_invariant" : "4.422",
        "epoch_osculation" : "2458000.5",
        "eccentricity" : ".3511630554252044",
        "semi_major_axis" : "1.488642450150541",
        "inclination" : "22.34664676086457",
        "ascending_node_longitude" : "56.24699060640204",
        "orbital_period" : "663.4130734711175",
        "perihelion_distance" : ".9658862189200146",
        "perihelion_argument" : "29.40267454156942",
        "aphelion_distance" : "2.011398681381068",
        "perihelion_time" : "2457913.713671184702",
        "mean_anomaly" : "47.09445686687606",
        "mean_motion" : ".5426483353974378",
        "equinox" : "J2000"
      }
    }, {
      "links" : {
        "self" : "https://api.nasa.gov/neo/rest/v1/neo/3738932?api_key=t0TVs3DtDT2H8Oy2Zy8m2eVrNsAVKAexjcZXUckd"
      },
      "neo_reference_id" : "3738932",
      "name" : "(2015 YQ1)",
      "nasa_jpl_url" : "http://ssd.jpl.nasa.gov/sbdb.cgi?sstr=3738932",
      "absolute_magnitude_h" : 28.0,
      "estimated_diameter" : {
        "kilometers" : {
          "estimated_diameter_min" : 0.0066765941,
          "estimated_diameter_max" : 0.0149293183
        },
        "meters" : {
          "estimated_diameter_min" : 6.676594135,
          "estimated_diameter_max" : 14.9293183439
        },
        "miles" : {
          "estimated_diameter_min" : 0.004148642,
          "estimated_diameter_max" : 0.0092766455
        },
        "feet" : {
          "estimated_diameter_min" : 21.9048371017,
          "estimated_diameter_max" : 48.9807047955
        }
      },
      "is_potentially_hazardous_asteroid" : false,
      "close_approach_data" : [ {
        "close_approach_date" : "2011-12-08",
        "epoch_date_close_approach" : 1323331200000,
        "relative_velocity" : {
          "kilometers_per_second" : "8.194771332",
          "kilometers_per_hour" : "29501.1767952433",
          "miles_per_hour" : "18330.8839925777"
        },
        "miss_distance" : {
          "astronomical" : "0.2348659892",
          "lunar" : "91.3628692627",
          "kilometers" : "35135452",
          "miles" : "21832158"
        },
        "orbiting_body" : "Earth"
      } ],
      "orbital_data" : {
        "orbit_id" : "8",
        "orbit_determination_date" : "2017-04-06 08:29:39",
        "orbit_uncertainty" : "6",
        "minimum_orbit_intersection" : ".000615632",
        "jupiter_tisserand_invariant" : "5.990",
        "epoch_osculation" : "2458000.5",
        "eccentricity" : ".403957410850079",
        "semi_major_axis" : "1.003000184879345",
        "inclination" : "2.484442826425956",
        "ascending_node_longitude" : "88.87947254444529",
        "orbital_period" : "366.9018879396638",
        "perihelion_distance" : ".5978308271133341",
        "perihelion_argument" : "111.9793427923618",
        "aphelion_distance" : "1.408169542645356",
        "perihelion_time" : "2458176.955131839705",
        "mean_anomaly" : "186.8642120676685",
        "mean_motion" : ".9811887369170507",
        "equinox" : "J2000"
      }
    } ]
  }
}